{
    "links": {
        "self": "http://www.neowsapp.com/rest/v1/neo/3680281?api_key=iIulBulltgU6a56xZRHN4H3l9WmuAYTsLGpBGhQ2"
    },
    "id": "3680281",
    "neo_reference_id": "3680281",
    "name": "(2014 OY391)",
    "designation": "2014 OY391",
    "nasa_jpl_url": "http://ssd.jpl.nasa.gov/sbdb.cgi?sstr=3680281",
    "absolute_magnitude_h": 26.0,
    "estimated_diameter": {
        "kilometers": {
            "estimated_diameter_min": 0.0167708462,
            "estimated_diameter_max": 0.0375007522
        },
        "meters": {
            "estimated_diameter_min": 16.7708462163,
            "estimated_diameter_max": 37.5007521798
        },
        "miles": {
            "estimated_diameter_min": 0.0104209175,
            "estimated_diameter_max": 0.0233018799
        },
        "feet": {
            "estimated_diameter_min": 55.0224631002,
            "estimated_diameter_max": 123.0339677816
        }
    },
    "is_potentially_hazardous_asteroid": false,
    "close_approach_data": [
        {
            "close_approach_date": "2014-07-15",
            "close_approach_date_full": "2014-Jul-15 10:07",
            "epoch_date_close_approach": 1405418820000,
            "relative_velocity": {
                "kilometers_per_second": "13.9810123697",
                "kilometers_per_hour": "50331.6445308394",
                "miles_per_hour": "31274.1265697318"
            },
            "miss_distance": {
                "astronomical": "0.0109594777",
                "lunar": "4.2632368253",
                "kilometers": "1639514.520232499",
                "miles": "1018747.0829425262"
            },
            "orbiting_body": "Earth"
        }
    ],
    "orbital_data": {
        "orbit_id": "4",
        "orbit_determination_date": "2019-04-18 07:27:05",
        "first_observation_date": "2014-07-25",
        "last_observation_date": "2014-07-30",
        "data_arc_in_days": 5,
        "observations_used": 14,
        "orbit_uncertainty": "8",
        "minimum_orbit_intersection": ".00296177",
        "jupiter_tisserand_invariant": "3.404",
        "epoch_osculation": "2456865.5",
        "eccentricity": ".6109726433038412",
        "semi_major_axis": "2.189062740142387",
        "inclination": ".5827701118305607",
        "ascending_node_longitude": "347.6679238184511",
        "orbital_period": "1183.002712135533",
        "perihelion_distance": ".8516052914396433",
        "perihelion_argument": "249.1721772765318",
        "aphelion_distance": "3.52652018884513",
        "perihelion_time": "2456814.444523804344",
        "mean_anomaly": "15.53671115196092",
        "mean_motion": ".304310375882516",
        "equinox": "J2000",
        "orbit_class": {
            "orbit_class_type": "APO",
            "orbit_class_description": "Near-Earth asteroid orbits which cross the Earth’s orbit similar to that of 1862 Apollo",
            "orbit_class_range": "a (semi-major axis) > 1.0 AU; q (perihelion) < 1.017 AU"
        }
    },
    "is_sentry_object": false
}